{
  "type": "FeatureCollection",
  "features": [
    {
      "type": "Feature",
      "properties": {
        "norad_id": 31307,
        "name": "GALAXY 17 (G-17)",
        "group": "intelsat",
        "lat": -0.863639035937948,
        "lon": -78.03381438921795,
        "alt_km": 35765.97198130984,
        "timestamp": "2025-12-14T18:52:55.165723+00:00",
        "meta_object_name": "GALAXY 17 (G-17)",
        "meta_object_id": "2007-016B",
        "meta_epoch": "2025-12-13T21:36:21.197376",
        "meta_mean_motion": 1.00272365,
        "meta_eccentricity": 0.00057454,
        "meta_inclination": 2.5032,
        "meta_ra_of_asc_node": 82.2731,
        "meta_arg_of_pericenter": 165.4036,
        "meta_mean_anomaly": 74.2587,
        "meta_ephemeris_type": 0,
        "meta_classification_type": "U",
        "meta_norad_cat_id": 31307,
        "meta_element_set_no": 999,
        "meta_rev_at_epoch": 6794,
        "meta_bstar": 0,
        "meta_mean_motion_dot": -1.91e-06,
        "meta_mean_motion_ddot": 0,
        "tle_line1": "1 31307U 07016B   25347.90024534 -.00000191  00000+0  00000+0 0  9996",
        "tle_line2": "2 31307   2.5032  82.2731 0005745 165.4036  74.2587  1.00272365 67942"
      },
      "geometry": {
        "type": "Point",
        "coordinates": [
          -78.03381438921795,
          -0.863639035937948
        ]
      }
    },
    {
      "type": "Feature",
      "properties": {
        "norad_id": 31862,
        "name": "DIRECTV 10",
        "group": "intelsat",
        "lat": 0.005386449156788165,
        "lon": -95.86518975447363,
        "alt_km": 35785.506669411836,
        "timestamp": "2025-12-14T18:52:55.165735+00:00",
        "meta_object_name": "DIRECTV 10",
        "meta_object_id": "2007-032A",
        "meta_epoch": "2025-12-13T21:31:14.187072",
        "meta_mean_motion": 1.0027114,
        "meta_eccentricity": 3.035e-05,
        "meta_inclination": 0.015,
        "meta_ra_of_asc_node": 168.8724,
        "meta_arg_of_pericenter": 41.7911,
        "meta_mean_anomaly": 92.1824,
        "meta_ephemeris_type": 0,
        "meta_classification_type": "U",
        "meta_norad_cat_id": 31862,
        "meta_element_set_no": 999,
        "meta_rev_at_epoch": 4373,
        "meta_bstar": 0,
        "meta_mean_motion_dot": -8.7e-07,
        "meta_mean_motion_ddot": 0,
        "tle_line1": "1 31862U 07032A   25347.89669198 -.00000087  00000+0  00000+0 0  9993",
        "tle_line2": "2 31862   0.0150 168.8724 0000303  41.7911  92.1824  1.00271140 43732"
      },
      "geometry": {
        "type": "Point",
        "coordinates": [
          -95.86518975447363,
          0.005386449156788165
        ]
      }
    },
    {
      "type": "Feature",
      "properties": {
        "norad_id": 32253,
        "name": "INTELSAT 11 (IS-11)",
        "group": "intelsat",
        "lat": 1.8540794026412337,
        "lon": -136.41293616606922,
        "alt_km": 36097.621326952656,
        "timestamp": "2025-12-14T18:52:55.165747+00:00",
        "meta_object_name": "INTELSAT 11 (IS-11)",
        "meta_object_id": "2007-044B",
        "meta_epoch": "2025-12-13T16:12:57.366144",
        "meta_mean_motion": 0.99049109,
        "meta_eccentricity": 0.00088089,
        "meta_inclination": 3.0828,
        "meta_ra_of_asc_node": 80.9667,
        "meta_arg_of_pericenter": 166.3622,
        "meta_mean_anomaly": 300.0684,
        "meta_ephemeris_type": 0,
        "meta_classification_type": "U",
        "meta_norad_cat_id": 32253,
        "meta_element_set_no": 999,
        "meta_rev_at_epoch": 6661,
        "meta_bstar": 0,
        "meta_mean_motion_dot": 7.4e-07,
        "meta_mean_motion_ddot": 0,
        "tle_line1": "1 32253U 07044B   25347.67566396  .00000074  00000+0  00000+0 0  9998",
        "tle_line2": "2 32253   3.0828  80.9667 0008808 166.3622 300.0684  0.99049109 66615"
      },
      "geometry": {
        "type": "Point",
        "coordinates": [
          -136.41293616606922,
          1.8540794026412337
        ]
      }
    },
    {
      "type": "Feature",
      "properties": {
        "norad_id": 32388,
        "name": "HORIZONS-2",
        "group": "intelsat",
        "lat": -1.0847449134689093,
        "lon": -66.89086571304688,
        "alt_km": 35767.521963082356,
        "timestamp": "2025-12-14T18:52:55.165759+00:00",
        "meta_object_name": "HORIZONS-2",
        "meta_object_id": "2007-063B",
        "meta_epoch": "2025-12-13T21:39:35.885952",
        "meta_mean_motion": 1.00269579,
        "meta_eccentricity": 0.00048531,
        "meta_inclination": 2.1245,
        "meta_ra_of_asc_node": 82.9496,
        "meta_arg_of_pericenter": 191.1785,
        "meta_mean_anomaly": 59.7918,
        "meta_ephemeris_type": 0,
        "meta_classification_type": "U",
        "meta_norad_cat_id": 32388,
        "meta_element_set_no": 999,
        "meta_rev_at_epoch": 6595,
        "meta_bstar": 0,
        "meta_mean_motion_dot": -2.37e-06,
        "meta_mean_motion_ddot": 0,
        "tle_line1": "1 32388U 07063B   25347.90249868 -.00000237  00000+0  00000+0 0  9998",
        "tle_line2": "2 32388   2.1245  82.9496 0004853 191.1785  59.7918  1.00269579 65953"
      },
      "geometry": {
        "type": "Point",
        "coordinates": [
          -66.89086571304688,
          -1.0847449134689093
        ]
      }
    },
    {
      "type": "Feature",
      "properties": {
        "norad_id": 32729,
        "name": "DIRECTV 11",
        "group": "intelsat",
        "lat": -0.0047307529606182095,
        "lon": -92.20721416030028,
        "alt_km": 35785.59276712706,
        "timestamp": "2025-12-14T18:52:55.165771+00:00",
        "meta_object_name": "DIRECTV 11",
        "meta_object_id": "2008-013A",
        "meta_epoch": "2025-12-13T21:32:14.091648",
        "meta_mean_motion": 1.00287104,
        "meta_eccentricity": 9.54e-05,
        "meta_inclination": 0.0261,
        "meta_ra_of_asc_node": 168.7838,
        "meta_arg_of_pericenter": 299.3899,
        "meta_mean_anomaly": 198.5284,
        "meta_ephemeris_type": 0,
        "meta_classification_type": "U",
        "meta_norad_cat_id": 32729,
        "meta_element_set_no": 999,
        "meta_rev_at_epoch": 4373,
        "meta_bstar": 0,
        "meta_mean_motion_dot": -1.12e-06,
        "meta_mean_motion_ddot": 0,
        "tle_line1": "1 32729U 08013A   25347.89738532 -.00000112  00000+0  00000+0 0  9994",
        "tle_line2": "2 32729   0.0261 168.7838 0000954 299.3899 198.5284  1.00287104 43739"
      },
      "geometry": {
        "type": "Point",
        "coordinates": [
          -92.20721416030028,
          -0.0047307529606182095
        ]
      }
    },
    {
      "type": "Feature",
      "properties": {
        "norad_id": 32951,
        "name": "GALAXY 18 (G-18)",
        "group": "intelsat",
        "lat": -0.041336102287636574,
        "lon": -116.11641564243075,
        "alt_km": 35775.42642077698,
        "timestamp": "2025-12-14T18:52:55.165783+00:00",
        "meta_object_name": "GALAXY 18 (G-18)",
        "meta_object_id": "2008-024A",
        "meta_epoch": "2025-12-13T17:59:54.624192",
        "meta_mean_motion": 1.00270681,
        "meta_eccentricity": 0.0002857,
        "meta_inclination": 0.0211,
        "meta_ra_of_asc_node": 346.7327,
        "meta_arg_of_pericenter": 282.8549,
        "meta_mean_anomaly": 320.0495,
        "meta_ephemeris_type": 0,
        "meta_classification_type": "U",
        "meta_norad_cat_id": 32951,
        "meta_element_set_no": 999,
        "meta_rev_at_epoch": 4399,
        "meta_bstar": 0,
        "meta_mean_motion_dot": 0,
        "meta_mean_motion_ddot": 0,
        "tle_line1": "1 32951U 08024A   25347.74993778  .00000000  00000+0  00000+0 0  9997",
        "tle_line2": "2 32951   0.0211 346.7327 0002857 282.8549 320.0495  1.00270681 43991"
      },
      "geometry": {
        "type": "Point",
        "coordinates": [
          -116.11641564243075,
          -0.041336102287636574
        ]
      }
    },
    {
      "type": "Feature",
      "properties": {
        "norad_id": 33153,
        "name": "INTELSAT 25 (IS-25)",
        "group": "intelsat",
        "lat": -2.134883123481337,
        "lon": -24.527044858904112,
        "alt_km": 35780.011033315925,
        "timestamp": "2025-12-14T18:52:55.165795+00:00",
        "meta_object_name": "INTELSAT 25 (IS-25)",
        "meta_object_id": "2008-034A",
        "meta_epoch": "2025-12-13T21:51:34.738272",
        "meta_mean_motion": 1.00271684,
        "meta_eccentricity": 0.00049501,
        "meta_inclination": 2.2308,
        "meta_ra_of_asc_node": 82.6375,
        "meta_arg_of_pericenter": 180.7725,
        "meta_mean_anomaly": 115.8293,
        "meta_ephemeris_type": 0,
        "meta_classification_type": "U",
        "meta_norad_cat_id": 33153,
        "meta_element_set_no": 999,
        "meta_rev_at_epoch": 6383,
        "meta_bstar": 0,
        "meta_mean_motion_dot": -2.08e-06,
        "meta_mean_motion_ddot": 0,
        "tle_line1": "1 33153U 08034A   25347.91081873 -.00000208  00000+0  00000+0 0  9997",
        "tle_line2": "2 33153   2.2308  82.6375 0004950 180.7725 115.8293  1.00271684 63839"
      },
      "geometry": {
        "type": "Point",
        "coordinates": [
          -24.527044858904112,
          -2.134883123481337
        ]
      }
    }
  ]
}